BEIDOU-3 M2 (C20)       
1 43002U 17069B   26060.68047222 -.00000003  00000+0  00000+0 0  9999
2 43002  56.5973  66.6603 0009682 328.7679  31.2120  1.86230491 56598
BEIDOU-3 M7 (C27)       
1 43107U 18003A   26060.95946045 -.00000051  00000+0  00000+0 0  9998
2 43107  54.4231 306.0554 0004639  70.8611 289.2487  1.86232216 55353
BEIDOU-3 M8 (C28)       
1 43108U 18003B   26061.44195370 -.00000053  00000+0  00000+0 0  9993
2 43108  54.4152 306.0214 0003139 293.2400  66.7868  1.86230717 55377
BEIDOU-3 M4 (C22)       
1 43207U 18018A   26060.27328956 -.00000001  00000+0  00000+0 0  9990
2 43207  56.5572  66.7052 0006848 350.3261   9.6997  1.86230768 54730
BEIDOU-3 M3 (C21)       
1 43208U 18018B   26061.41364278 -.00000008  00000+0  00000+0 0  9992
2 43208  56.5577  66.6717 0009895 319.4833  40.4775  1.86230930 54759
BEIDOU-3 M9 (C29)       
1 43245U 18029A   26061.09381289 -.00000047  00000+0  00000+0 0  9993
2 43245  54.2902 303.6948 0000899  20.3582 339.7059  1.86228126 53900
BEIDOU-3 M10 (C30)      
1 43246U 18029B   26061.02870469 -.00000047  00000+0  00000+0 0  9990
2 43246  54.2879 303.7249 0005112  23.5882 336.4958  1.86228858 53881
BEIDOU-2 IGSO-7 (C16)   
1 43539U 18057A   26056.73984515 -.00000161  00000+0  00000+0 0  9993
2 43539  55.1859 164.0342 0099962 236.5988 133.5173  1.00284731 28015
BEIDOU-3 M5 (C23)       
1 43581U 18062A   26061.25281466 -.00000028  00000+0  00000+0 0  9996
2 43581  54.0881 185.9391 0002089 311.2125  48.7217  1.86228516 51643
BEIDOU-3 M6 (C24)       
1 43582U 18062B   26061.65267808 -.00000025  00000+0  00000+0 0  9992
2 43582  54.0877 185.9146 0006283  44.0723 315.9311  1.86227492 51659
BEIDOU-3 M12 (C26)      
1 43602U 18067A   26061.59110086 -.00000026  00000+0  00000+0 0  9999
2 43602  54.1825 184.6546 0008588  39.8197 320.1981  1.86227627 51137
BEIDOU-3 M11 (C25)      
1 43603U 18067B   26061.18888096 -.00000029  00000+0  00000+0 0  9991
2 43603  54.1803 184.6321 0005013  34.6184 325.3680  1.86227037 51154
BEIDOU-3 M13 (C32)      
1 43622U 18072A   26061.14480929 -.00000007  00000+0  00000+0 0  9993
2 43622  56.5306  66.1905 0008885 307.5967  52.3573  1.86230769 50661
BEIDOU-3 M14 (C33)      
1 43623U 18072B   26061.01026698 -.00000006  00000+0  00000+0 0  9998
2 43623  56.5324  66.1890 0006344 328.5825  31.4150  1.86230813 50657
BEIDOU-3 M16 (C35)      
1 43647U 18078A   26061.16715456 -.00000048  00000+0  00000+0 0  9999
2 43647  54.1863 303.7392 0008434  30.8134 329.2965  1.86232266 50162
BEIDOU-3 M15 (C34)      
1 43648U 18078B   26060.75950487 -.00000045  00000+0  00000+0 0  9996
2 43648  54.1830 303.7545 0005322  37.6187 322.4788  1.86232013 50172
BEIDOU-3 G1 (C59)       
1 43683U 18085A   26061.75854140 -.00000294  00000+0  00000+0 0  9999
2 43683   2.8063 100.4335 0001290  30.1716  83.0505  1.00269049 26999
